NORAD_CAT_ID,OBJECT_NAME,OBJECT_TYPE,EPOCH,MEAN_MOTION,ECCENTRICITY,INCLINATION,RA_OF_ASC_NODE,ARG_OF_PERICENTER,MEAN_ANOMALY,BSTAR,MEAN_MOTION_DOT,MEAN_MOTION_DDOT,TLE_LINE0,TLE_LINE1,TLE_LINE2,SEMIMAJOR_AXIS,PERIOD,APOGEE,PERIGEE,DECAYED
55630.0,STARLINK-5303,PAYLOAD,2023-08-04 17:51:46,14.98330892,0.0003042,69.9998,74.6257,269.8984,90.1827,1.3645e-05,7e-07,0.0,0 STARLINK-5303,1 55630U 23021C   23216.74429341  .00000070  00000-0  13645-4 0  9995,2 55630  69.9998  74.6257 0003042 269.8984  90.1827 14.98330892 26009,6950.19,96.107,574.169,569.941,0.0
55630.0,STARLINK-5303,PAYLOAD,2023-08-05 17:53:47,14.98330537,0.0003173,69.9998,72.1012,269.983,90.0965,9.7694e-05,1.073e-05,0.0,0 STARLINK-5303,1 55630U 23021C   23217.74569035  .00001073  00000-0  97694-4 0  9991,2 55630  69.9998  72.1012 0003173 269.9830  90.0965 14.98330537 26151,6950.191,96.107,574.262,569.851,0.0
55630.0,STARLINK-5303,PAYLOAD,2023-08-06 17:55:49,14.98323405,0.0002773,70.0011,69.5786,261.2681,98.8164,-3.9986e-05,-5.7e-06,0.0,0 STARLINK-5303,1 55630U 23021C   23218.74709921 -.00000570  00000-0 -39986-4 0  9995,2 55630  70.0011  69.5786 0002773 261.2681  98.8164 14.98323405 26302,6950.213,96.107,574.006,570.151,0.0
55630.0,STARLINK-5303,PAYLOAD,2023-08-07 17:57:50,14.98329762,0.0003318,69.9996,67.0515,266.3326,93.7454,-3.7998e-05,-5.46e-06,0.0,0 STARLINK-5303,1 55630U 23021C   23219.74849779 -.00000546  00000-0 -37998-4 0  9996,2 55630  69.9996  67.0515 0003318 266.3326  93.7454 14.98329762 26456,6950.194,96.107,574.365,569.753,0.0
55630.0,STARLINK-5303,PAYLOAD,2023-08-08 06:46:54,14.98340669,0.0003226,70.0,65.7051,265.2918,94.7872,-7.6077e-05,-1.001e-05,0.0,0 STARLINK-5303,1 55630U 23021C   23220.28257108 -.00001001  00000-0 -76077-4 0  9994,2 55630  70.0000  65.7051 0003226 265.2918  94.7872 14.98340669 26531,6950.16,96.106,574.267,569.783,0.0
55630.0,STARLINK-5303,PAYLOAD,2023-08-09 06:48:55,14.9832685,0.0003326,69.9995,63.1797,267.3291,92.7488,0.00024978,2.888e-05,0.0,0 STARLINK-5303,1 55630U 23021C   23221.28397109  .00002888  00000-0  24978-3 0  9995,2 55630  69.9995  63.1797 0003326 267.3291  92.7488 14.98326850 26681,6950.203,96.107,574.379,569.756,0.0
55630.0,STARLINK-5303,PAYLOAD,2023-08-10 06:50:56,14.98333048,0.000331,69.9997,60.6545,264.9674,95.1107,7.4158e-07,-8.4e-07,0.0,0 STARLINK-5303,1 55630U 23021C   23222.28537144 -.00000084  00000-0  74158-6 0  9996,2 55630  69.9997  60.6545 0003310 264.9674  95.1107 14.98333048 26836,6950.183,96.107,574.349,569.748,0.0
55630.0,STARLINK-5303,PAYLOAD,2023-08-10 22:52:16,14.98357172,0.0003224,69.9996,58.9714,265.4387,94.6404,-0.00032092,-3.923e-05,0.0,0 STARLINK-5303,1 55630U 23021C   23222.95296361 -.00003923  00000-0 -32092-3 0  9997,2 55630  69.9996  58.9714 0003224 265.4387  94.6404 14.98357172 26933,6950.109,96.105,574.215,569.733,0.0
55630.0,STARLINK-5303,PAYLOAD,2023-08-11 18:05:53,14.98328609,0.0003198,69.9999,56.9514,267.4646,92.6147,3.6027e-05,3.37e-06,0.0,0 STARLINK-5303,1 55630U 23021C   23223.75409033  .00000337  00000-0  36027-4 0  9995,2 55630  69.9999  56.9514 0003198 267.4646  92.6147 14.98328609 27051,6950.197,96.107,574.285,569.84,0.0
55630.0,STARLINK-5303,PAYLOAD,2023-08-12 19:44:02,14.98333428,0.0003243,69.9997,54.2586,268.1872,91.8916,1.044e-05,3.2e-07,0.0,0 STARLINK-5303,1 55630U 23021C   23224.82224724  .00000032  00000-0  10440-4 0  9999,2 55630  69.9997  54.2586 0003243 268.1872  91.8916 14.98333428 27217,6950.182,96.107,574.301,569.793,0.0
55630.0,STARLINK-5303,PAYLOAD,2023-08-13 22:58:19,14.98329419,0.0003134,70.0004,51.3979,266.6891,93.3909,2.3999e-05,1.93e-06,0.0,0 STARLINK-5303,1 55630U 23021C   23225.95716919  .00000193  00000-0  23999-4 0  9997,2 55630  70.0004  51.3979 0003134 266.6891  93.3909 14.98329419 27388,6950.195,96.107,574.238,569.881,0.0
55630.0,STARLINK-5303,PAYLOAD,2023-08-14 23:00:20,14.98332544,0.0003172,70.0002,48.8721,269.8585,90.2211,2.3917e-05,1.92e-06,0.0,0 STARLINK-5303,1 55630U 23021C   23226.95856684  .00000192  00000-0  23917-4 0  9991,2 55630  70.0002  48.8721 0003172 269.8585  90.2211 14.98332544 27531,6950.185,96.107,574.255,569.845,0.0
55630.0,STARLINK-5303,PAYLOAD,2023-08-16 05:26:53,14.9833243,0.0003196,70.0004,45.6739,270.0545,90.0248,4.2078e-05,4.09e-06,0.0,0 STARLINK-5303,1 55630U 23021C   23228.22700485  .00000409  00000-0  42078-4 0  9990,2 55630  70.0004  45.6739 0003196 270.0545  90.0248 14.98332430 27726,6950.185,96.107,574.272,569.829,0.0
55630.0,STARLINK-5303,PAYLOAD,2023-08-17 11:53:26,14.98329915,0.000312,69.9975,42.4747,268.7657,91.3145,6.2494e-06,-1.8e-07,0.0,0 STARLINK-5303,1 55630U 23021C   23229.49544562 -.00000018  00000-0  62494-5 0  9994,2 55630  69.9975  42.4747 0003120 268.7657  91.3145 14.98329915 27914,6950.193,96.107,574.227,569.89,0.0
55630.0,STARLINK-5303,PAYLOAD,2023-08-18 18:19:59,14.98331519,0.0003244,70.0001,39.2773,270.4696,89.6091,5.6092e-06,-2.6e-07,0.0,0 STARLINK-5303,1 55630U 23021C   23230.76388452 -.00000026  00000-0  56092-5 0  9996,2 55630  70.0001  39.2773 0003244 270.4696  89.6091 14.98331519 28105,6950.188,96.107,574.308,569.799,0.0
55630.0,STARLINK-5303,PAYLOAD,2023-08-20 11:59:29,14.98329466,0.0003151,70.0004,34.9013,269.1014,90.9784,6.247e-05,6.52e-06,0.0,0 STARLINK-5303,1 55630U 23021C   23232.49964494  .00000652  00000-0  62470-4 0  9994,2 55630  70.0004  34.9013 0003151 269.1014  90.9784 14.98329466 28363,6950.195,96.107,574.25,569.87,0.0
55630.0,STARLINK-5303,PAYLOAD,2023-08-21 12:01:30,14.98325058,0.0003186,70.0005,32.3761,270.7953,89.2841,1.6379e-05,1.02e-06,0.0,0 STARLINK-5303,1 55630U 23021C   23233.50104859  .00000102  00000-0  16379-4 0  9995,2 55630  70.0005  32.3761 0003186 270.7953  89.2841 14.98325058 28519,6950.208,96.107,574.288,569.859,0.0
55630.0,STARLINK-5303,PAYLOAD,2023-08-21 20:02:10,14.98331904,0.0003203,70.0008,31.5344,270.4962,89.583,4.6425e-05,4.61e-06,0.0,0 STARLINK-5303,1 55630U 23021C   23233.83484376  .00000461  00000-0  46425-4 0  9999,2 55630  70.0008  31.5344 0003203 270.4962  89.5830 14.98331904 28560,6950.187,96.107,574.278,569.826,0.0
55630.0,STARLINK-5303,PAYLOAD,2023-08-22 12:03:31,14.98328144,0.0003199,70.0009,29.8514,269.8611,90.2182,-3.5626e-05,-5.18e-06,0.0,0 STARLINK-5303,1 55630U 23021C   23234.50244866 -.00000518  00000-0 -35626-4 0  9998,2 55630  70.0009  29.8514 0003199 269.8611  90.2182 14.98328144 28669,6950.199,96.107,574.287,569.84,0.0
55630.0,STARLINK-5303,PAYLOAD,2023-08-23 12:05:32,14.98329683,0.0003182,70.0012,27.3268,268.9614,91.118,7.91e-05,8.51e-06,0.0,0 STARLINK-5303,1 55630U 23021C   23235.50384453  .00000851  00000-0  79100-4 0  9999,2 55630  70.0012  27.3268 0003182 268.9614  91.1180 14.98329683 28811,6950.194,96.107,574.27,569.847,0.0
55630.0,STARLINK-5303,PAYLOAD,2023-08-24 15:19:49,14.98329172,0.0003191,70.0013,24.4635,273.5504,86.529,6.9272e-05,7.34e-06,0.0,0 STARLINK-5303,1 55630U 23021C   23236.63876446  .00000734  00000-0  69272-4 0  9991,2 55630  70.0013  24.4635 0003191 273.5504  86.5290 14.98329172 28989,6950.195,96.107,574.278,569.843,0.0
55630.0,STARLINK-5303,PAYLOAD,2023-08-24 20:08:12,14.9835832,0.0003356,70.0012,23.9587,273.3313,86.7462,-0.00035554,-4.336e-05,0.0,0 STARLINK-5303,1 55630U 23021C   23236.83903439 -.00004336  00000-0 -35554-3 0  9995,2 55630  70.0012  23.9587 0003356 273.3313  86.7462 14.98358320 29315,6950.105,96.105,574.303,569.638,0.0
55630.0,STARLINK-5303,PAYLOAD,2023-08-25 10:33:26,14.98329799,0.0003128,70.0015,22.4435,274.3103,85.7699,-3.647e-05,-5.28e-06,0.0,0 STARLINK-5303,1 55630U 23021C   23237.43988647 -.00000528  00000-0 -36470-4 0  9994,2 55630  70.0015  22.4435 0003128 274.3103  85.7699 14.98329799 29105,6950.194,96.107,574.233,569.884,0.0
55630.0,STARLINK-5303,PAYLOAD,2023-08-25 13:45:42,14.98328934,0.0003152,70.0014,22.1072,274.5819,85.498,-4.5792e-05,-6.39e-06,0.0,0 STARLINK-5303,1 55630U 23021C   23237.57340729 -.00000639  00000-0 -45792-4 0  9992,2 55630  70.0014  22.1072 0003152 274.5819  85.4980 14.98328934 29426,6950.196,96.107,574.252,569.87,0.0
55630.0,STARLINK-5303,PAYLOAD,2023-08-25 20:10:14,14.98333753,0.0003154,70.0013,21.4339,272.3296,87.7502,6.2449e-06,-1.8e-07,0.0,0 STARLINK-5303,1 55630U 23021C   23237.84044239 -.00000018  00000-0  62449-5 0  9998,2 55630  70.0013  21.4339 0003154 272.3296  87.7502 14.98333753 29464,6950.181,96.107,574.238,569.854,0.0
55630.0,STARLINK-5303,PAYLOAD,2023-08-26 10:35:26,14.98330434,0.0003153,70.0011,19.9192,271.0242,89.0555,2.4553e-06,-6.4e-07,0.0,0 STARLINK-5303,1 55630U 23021C   23238.44128382 -.00000064  00000-0  24553-5 0  9992,2 55630  70.0011  19.9192 0003153 271.0242  89.0555 14.98330434 29250,6950.192,96.107,574.248,569.865,0.0
55630.0,STARLINK-5303,PAYLOAD,2023-08-26 12:11:34,14.98330728,0.000315,70.0011,19.7509,271.2693,88.8105,6.8522e-06,-1.1e-07,0.0,0 STARLINK-5303,1 55630U 23021C   23238.50804349 -.00000011  00000-0  68522-5 0  9999,2 55630  70.0011  19.7509 0003150 271.2693  88.8105 14.98330728 29567,6950.191,96.107,574.245,569.866,0.0
55630.0,STARLINK-5303,PAYLOAD,2023-08-26 18:36:06,14.98335771,0.0003169,70.0012,19.0777,271.1148,88.9648,5.8485e-05,6.05e-06,0.0,0 STARLINK-5303,1 55630U 23021C   23238.77507857  .00000605  00000-0  58485-4 0  9996,2 55630  70.0012  19.0777 0003169 271.1148  88.9648 14.98335771 29603,6950.175,96.107,574.243,569.838,0.0
55630.0,STARLINK-5303,PAYLOAD,2023-08-27 09:01:19,14.98328174,0.0003189,70.0012,17.5633,270.9331,89.1463,9.4338e-06,2e-07,0.0,0 STARLINK-5303,1 55630U 23021C   23239.37592437  .00000020  00000-0  94338-5 0  9990,2 55630  70.0012  17.5633 0003189 270.9331  89.1463 14.98328174 29393,6950.199,96.107,574.28,569.847,0.0
55630.0,STARLINK-5303,PAYLOAD,2023-08-27 18:38:07,14.98332518,0.0003231,70.0012,16.5534,269.5124,90.5665,4.5823e-05,4.54e-06,0.0,0 STARLINK-5303,1 55630U 23021C   23239.77648050  .00000454  00000-0  45823-4 0  9992,2 55630  70.0012  16.5534 0003231 269.5124  90.5665 14.98332518 29751,6950.185,96.107,574.296,569.804,0.0
